
{
  "response": {
  "version":"0.1",
  "termsofService":"http://www.wunderground.com/weather/api/d/terms.html",
  "features": {
  "history": 1
  }
	}
		,
	"history": {
		"date": {
		"pretty": "February 12, 2015",
		"year": "2015",
		"mon": "02",
		"mday": "12",
		"hour": "12",
		"min": "00",
		"tzname": "America/Chicago"
		},
		"utcdate": {
		"pretty": "February 12, 2015",
		"year": "2015",
		"mon": "02",
		"mday": "12",
		"hour": "18",
		"min": "00",
		"tzname": "UTC"
		},
		"observations": [
		{
		"date": {
		"pretty": "2:53 PM CST on February 12, 2015",
		"year": "2015",
		"mon": "02",
		"mday": "12",
		"hour": "14",
		"min": "53",
		"tzname": "America/Chicago"
		},
		"utcdate": {
		"pretty": "8:53 PM GMT on February 12, 2015",
		"year": "2015",
		"mon": "02",
		"mday": "12",
		"hour": "20",
		"min": "53",
		"tzname": "UTC"
		},
		"tempm":"-13.3", "tempi":"8.1","dewptm":"-21.7", "dewpti":"-7.1","hum":"50","wspdm":"0.0", "wspdi":"0.0","wgustm":"-9999.0", "wgusti":"-9999.0","wdird":"0","wdire":"North","vism":"16.1", "visi":"10.0","pressurem":"1035.0", "pressurei":"30.57","windchillm":"-999", "windchilli":"-999","heatindexm":"-9999", "heatindexi":"-9999","precipm":"-9999.00", "precipi":"-9999.00","conds":"Clear","icon":"clear","fog":"0","rain":"0","snow":"0","hail":"0","thunder":"0","tornado":"0","metar":"METAR KMIC 122053Z 00000KT 10SM CLR M13/M22 A3049 RMK AO2 SLP350 T11331217 58024" },
		{
		"date": {
		"pretty": "3:53 PM CST on February 12, 2015",
		"year": "2015",
		"mon": "02",
		"mday": "12",
		"hour": "15",
		"min": "53",
		"tzname": "America/Chicago"
		},
		"utcdate": {
		"pretty": "9:53 PM GMT on February 12, 2015",
		"year": "2015",
		"mon": "02",
		"mday": "12",
		"hour": "21",
		"min": "53",
		"tzname": "UTC"
		},
		"tempm":"-12.8", "tempi":"9.0","dewptm":"-20.6", "dewpti":"-5.1","hum":"53","wspdm":"0.0", "wspdi":"0.0","wgustm":"-9999.0", "wgusti":"-9999.0","wdird":"0","wdire":"North","vism":"16.1", "visi":"10.0","pressurem":"1033.6", "pressurei":"30.53","windchillm":"-999", "windchilli":"-999","heatindexm":"-9999", "heatindexi":"-9999","precipm":"-9999.00", "precipi":"-9999.00","conds":"Clear","icon":"clear","fog":"0","rain":"0","snow":"0","hail":"0","thunder":"0","tornado":"0","metar":"METAR KMIC 122153Z 00000KT 10SM CLR M13/M21 A3045 RMK AO2 SLP336 T11281206" },
		{
		"date": {
		"pretty": "4:53 PM CST on February 12, 2015",
		"year": "2015",
		"mon": "02",
		"mday": "12",
		"hour": "16",
		"min": "53",
		"tzname": "America/Chicago"
		},
		"utcdate": {
		"pretty": "10:53 PM GMT on February 12, 2015",
		"year": "2015",
		"mon": "02",
		"mday": "12",
		"hour": "22",
		"min": "53",
		"tzname": "UTC"
		},
		"tempm":"-12.8", "tempi":"9.0","dewptm":"-20.6", "dewpti":"-5.1","hum":"53","wspdm":"7.4", "wspdi":"4.6","wgustm":"-9999.0", "wgusti":"-9999.0","wdird":"180","wdire":"South","vism":"16.1", "visi":"10.0","pressurem":"1032.7", "pressurei":"30.50","windchillm":"-17.5", "windchilli":"0.6","heatindexm":"-9999", "heatindexi":"-9999","precipm":"-9999.00", "precipi":"-9999.00","conds":"Clear","icon":"clear","fog":"0","rain":"0","snow":"0","hail":"0","thunder":"0","tornado":"0","metar":"METAR KMIC 122253Z 18004KT 10SM CLR M13/M21 A3043 RMK AO2 SLP327 T11281206" },
		{
		"date": {
		"pretty": "5:53 PM CST on February 12, 2015",
		"year": "2015",
		"mon": "02",
		"mday": "12",
		"hour": "17",
		"min": "53",
		"tzname": "America/Chicago"
		},
		"utcdate": {
		"pretty": "11:53 PM GMT on February 12, 2015",
		"year": "2015",
		"mon": "02",
		"mday": "12",
		"hour": "23",
		"min": "53",
		"tzname": "UTC"
		},
		"tempm":"-12.8", "tempi":"9.0","dewptm":"-20.6", "dewpti":"-5.1","hum":"53","wspdm":"0.0", "wspdi":"0.0","wgustm":"-9999.0", "wgusti":"-9999.0","wdird":"0","wdire":"North","vism":"16.1", "visi":"10.0","pressurem":"1032.2", "pressurei":"30.48","windchillm":"-999", "windchilli":"-999","heatindexm":"-9999", "heatindexi":"-9999","precipm":"-9999.00", "precipi":"-9999.00","conds":"Clear","icon":"clear","fog":"0","rain":"0","snow":"0","hail":"0","thunder":"0","tornado":"0","metar":"METAR KMIC 122353Z 00000KT 10SM CLR M13/M21 A3041 RMK AO2 SLP322 T11281206 11122 21156 56027" },
		{
		"date": {
		"pretty": "6:53 PM CST on February 12, 2015",
		"year": "2015",
		"mon": "02",
		"mday": "12",
		"hour": "18",
		"min": "53",
		"tzname": "America/Chicago"
		},
		"utcdate": {
		"pretty": "12:53 AM GMT on February 13, 2015",
		"year": "2015",
		"mon": "02",
		"mday": "13",
		"hour": "00",
		"min": "53",
		"tzname": "UTC"
		},
		"tempm":"-13.9", "tempi":"7.0","dewptm":"-20.0", "dewpti":"-4.0","hum":"61","wspdm":"5.6", "wspdi":"3.5","wgustm":"-9999.0", "wgusti":"-9999.0","wdird":"180","wdire":"South","vism":"16.1", "visi":"10.0","pressurem":"1031.9", "pressurei":"30.48","windchillm":"-17.7", "windchilli":"0.1","heatindexm":"-9999", "heatindexi":"-9999","precipm":"-9999.00", "precipi":"-9999.00","conds":"Clear","icon":"clear","fog":"0","rain":"0","snow":"0","hail":"0","thunder":"0","tornado":"0","metar":"METAR KMIC 130053Z 18003KT 10SM CLR M14/M20 A3040 RMK AO2 SLP319 T11391200" },
		{
		"date": {
		"pretty": "7:53 PM CST on February 12, 2015",
		"year": "2015",
		"mon": "02",
		"mday": "12",
		"hour": "19",
		"min": "53",
		"tzname": "America/Chicago"
		},
		"utcdate": {
		"pretty": "1:53 AM GMT on February 13, 2015",
		"year": "2015",
		"mon": "02",
		"mday": "13",
		"hour": "01",
		"min": "53",
		"tzname": "UTC"
		},
		"tempm":"-14.4", "tempi":"6.1","dewptm":"-19.4", "dewpti":"-2.9","hum":"67","wspdm":"9.3", "wspdi":"5.8","wgustm":"-9999.0", "wgusti":"-9999.0","wdird":"160","wdire":"SSE","vism":"16.1", "visi":"10.0","pressurem":"1030.8", "pressurei":"30.44","windchillm":"-20.2", "windchilli":"-4.3","heatindexm":"-9999", "heatindexi":"-9999","precipm":"-9999.00", "precipi":"-9999.00","conds":"Clear","icon":"clear","fog":"0","rain":"0","snow":"0","hail":"0","thunder":"0","tornado":"0","metar":"METAR KMIC 130153Z 16005KT 10SM CLR M14/M19 A3037 RMK AO2 SLP308 T11441194" },
		{
		"date": {
		"pretty": "8:53 PM CST on February 12, 2015",
		"year": "2015",
		"mon": "02",
		"mday": "12",
		"hour": "20",
		"min": "53",
		"tzname": "America/Chicago"
		},
		"utcdate": {
		"pretty": "2:53 AM GMT on February 13, 2015",
		"year": "2015",
		"mon": "02",
		"mday": "13",
		"hour": "02",
		"min": "53",
		"tzname": "UTC"
		},
		"tempm":"-14.4", "tempi":"6.1","dewptm":"-19.4", "dewpti":"-2.9","hum":"67","wspdm":"9.3", "wspdi":"5.8","wgustm":"-9999.0", "wgusti":"-9999.0","wdird":"160","wdire":"SSE","vism":"16.1", "visi":"10.0","pressurem":"1030.3", "pressurei":"30.43","windchillm":"-20.2", "windchilli":"-4.3","heatindexm":"-9999", "heatindexi":"-9999","precipm":"-9999.00", "precipi":"-9999.00","conds":"Clear","icon":"clear","fog":"0","rain":"0","snow":"0","hail":"0","thunder":"0","tornado":"0","metar":"METAR KMIC 130253Z 16005KT 10SM CLR M14/M19 A3036 RMK AO2 SLP303 T11441194 58019" },
		{
		"date": {
		"pretty": "9:53 PM CST on February 12, 2015",
		"year": "2015",
		"mon": "02",
		"mday": "12",
		"hour": "21",
		"min": "53",
		"tzname": "America/Chicago"
		},
		"utcdate": {
		"pretty": "3:53 AM GMT on February 13, 2015",
		"year": "2015",
		"mon": "02",
		"mday": "13",
		"hour": "03",
		"min": "53",
		"tzname": "UTC"
		},
		"tempm":"-14.4", "tempi":"6.1","dewptm":"-18.9", "dewpti":"-2.0","hum":"69","wspdm":"9.3", "wspdi":"5.8","wgustm":"-9999.0", "wgusti":"-9999.0","wdird":"170","wdire":"South","vism":"16.1", "visi":"10.0","pressurem":"1029.2", "pressurei":"30.40","windchillm":"-20.2", "windchilli":"-4.3","heatindexm":"-9999", "heatindexi":"-9999","precipm":"-9999.00", "precipi":"-9999.00","conds":"Clear","icon":"clear","fog":"0","rain":"0","snow":"0","hail":"0","thunder":"0","tornado":"0","metar":"METAR KMIC 130353Z 17005KT 10SM CLR M14/M19 A3032 RMK AO2 SLP292 T11441189" },
		{
		"date": {
		"pretty": "10:53 PM CST on February 12, 2015",
		"year": "2015",
		"mon": "02",
		"mday": "12",
		"hour": "22",
		"min": "53",
		"tzname": "America/Chicago"
		},
		"utcdate": {
		"pretty": "4:53 AM GMT on February 13, 2015",
		"year": "2015",
		"mon": "02",
		"mday": "13",
		"hour": "04",
		"min": "53",
		"tzname": "UTC"
		},
		"tempm":"-13.9", "tempi":"7.0","dewptm":"-17.8", "dewpti":"-0.0","hum":"73","wspdm":"11.1", "wspdi":"6.9","wgustm":"-9999.0", "wgusti":"-9999.0","wdird":"170","wdire":"South","vism":"16.1", "visi":"10.0","pressurem":"1028.0", "pressurei":"30.36","windchillm":"-20.3", "windchilli":"-4.5","heatindexm":"-9999", "heatindexi":"-9999","precipm":"-9999.00", "precipi":"-9999.00","conds":"Clear","icon":"clear","fog":"0","rain":"0","snow":"0","hail":"0","thunder":"0","tornado":"0","metar":"METAR KMIC 130453Z 17006KT 10SM CLR M14/M18 A3029 RMK AO2 PRESFR SLP280 T11391178" },
		{
		"date": {
		"pretty": "11:53 PM CST on February 12, 2015",
		"year": "2015",
		"mon": "02",
		"mday": "12",
		"hour": "23",
		"min": "53",
		"tzname": "America/Chicago"
		},
		"utcdate": {
		"pretty": "5:53 AM GMT on February 13, 2015",
		"year": "2015",
		"mon": "02",
		"mday": "13",
		"hour": "05",
		"min": "53",
		"tzname": "UTC"
		},
		"tempm":"-12.8", "tempi":"9.0","dewptm":"-17.2", "dewpti":"1.0","hum":"70","wspdm":"14.8", "wspdi":"9.2","wgustm":"-9999.0", "wgusti":"-9999.0","wdird":"160","wdire":"SSE","vism":"16.1", "visi":"10.0","pressurem":"1026.2", "pressurei":"30.31","windchillm":"-20.1", "windchilli":"-4.2","heatindexm":"-9999", "heatindexi":"-9999","precipm":"-9999.00", "precipi":"-9999.00","conds":"Mostly Cloudy","icon":"mostlycloudy","fog":"0","rain":"0","snow":"0","hail":"0","thunder":"0","tornado":"0","metar":"METAR KMIC 130553Z 16008KT 10SM BKN085 M13/M17 A3024 RMK AO2 SLP262 T11281172 11128 21150 411221194 58038" }
		],
		"dailysummary": [
		{ "date": {
		"pretty": "12:00 PM CST on February 12, 2015",
		"year": "2015",
		"mon": "02",
		"mday": "12",
		"hour": "12",
		"min": "00",
		"tzname": "America/Chicago"
		},
		"fog":"0","rain":"0","snow":"0","snowfallm":"0.00", "snowfalli":"0.00","monthtodatesnowfallm":"", "monthtodatesnowfalli":"","since1julsnowfallm":"", "since1julsnowfalli":"","snowdepthm":"", "snowdepthi":"","hail":"0","thunder":"0","tornado":"0","meantempm":"-13", "meantempi":"8","meandewptm":"-19", "meandewpti":"-3","meanpressurem":"1031", "meanpressurei":"30.45","meanwindspdm":"5", "meanwindspdi":"3","meanwdire":"","meanwdird":"169","meanvism":"16", "meanvisi":"10","humidity":"","maxtempm":"-13", "maxtempi":"9","mintempm":"-14", "mintempi":"6","maxhumidity":"73","minhumidity":"50","maxdewptm":"-17", "maxdewpti":"1","mindewptm":"-22", "mindewpti":"-7","maxpressurem":"1035", "maxpressurei":"30.57","minpressurem":"1026", "minpressurei":"30.31","maxwspdm":"14", "maxwspdi":"9","minwspdm":"0", "minwspdi":"0","maxvism":"16", "maxvisi":"10","minvism":"16", "minvisi":"10","gdegreedays":"0","heatingdegreedays":"58","coolingdegreedays":"0","precipm":"0.00", "precipi":"0.00","precipsource":"","heatingdegreedaysnormal":"","monthtodateheatingdegreedays":"","monthtodateheatingdegreedaysnormal":"","since1sepheatingdegreedays":"","since1sepheatingdegreedaysnormal":"","since1julheatingdegreedays":"","since1julheatingdegreedaysnormal":"","coolingdegreedaysnormal":"","monthtodatecoolingdegreedays":"","monthtodatecoolingdegreedaysnormal":"","since1sepcoolingdegreedays":"","since1sepcoolingdegreedaysnormal":"","since1jancoolingdegreedays":"","since1jancoolingdegreedaysnormal":"" }
		]
	}
}
