
{
  "response": {
  "version":"0.1",
  "termsofService":"http://www.wunderground.com/weather/api/d/terms.html",
  "features": {
  "history": 1
  }
	}
		,
	"history": {
		"date": {
		"pretty": "May 1, 2012",
		"year": "2012",
		"mon": "05",
		"mday": "01",
		"hour": "12",
		"min": "00",
		"tzname": "America/Chicago"
		},
		"utcdate": {
		"pretty": "May 1, 2012",
		"year": "2012",
		"mon": "05",
		"mday": "01",
		"hour": "17",
		"min": "00",
		"tzname": "UTC"
		},
		"observations": [
		{
		"date": {
		"pretty": "12:53 AM CDT on May 01, 2012",
		"year": "2012",
		"mon": "05",
		"mday": "01",
		"hour": "00",
		"min": "53",
		"tzname": "America/Chicago"
		},
		"utcdate": {
		"pretty": "5:53 AM GMT on May 01, 2012",
		"year": "2012",
		"mon": "05",
		"mday": "01",
		"hour": "05",
		"min": "53",
		"tzname": "UTC"
		},
		"tempm":"12.2", "tempi":"54.0","dewptm":"10.0", "dewpti":"50.0","hum":"86","wspdm":"11.1", "wspdi":"6.9","wgustm":"-9999.0", "wgusti":"-9999.0","wdird":"160","wdire":"SSE","vism":"12.9", "visi":"8.0","pressurem":"1009.5", "pressurei":"29.81","windchillm":"-999", "windchilli":"-999","heatindexm":"-9999", "heatindexi":"-9999","precipm":"-9999.00", "precipi":"-9999.00","conds":"Scattered Clouds","icon":"partlycloudy","fog":"0","rain":"0","snow":"0","hail":"0","thunder":"0","tornado":"0","metar":"METAR KMIC 010553Z AUTO 16006KT 8SM SCT110 12/10 A2981 RMK AO2 SLP095 T01220100 10167 20111 401830067 56007" },
		{
		"date": {
		"pretty": "1:53 AM CDT on May 01, 2012",
		"year": "2012",
		"mon": "05",
		"mday": "01",
		"hour": "01",
		"min": "53",
		"tzname": "America/Chicago"
		},
		"utcdate": {
		"pretty": "6:53 AM GMT on May 01, 2012",
		"year": "2012",
		"mon": "05",
		"mday": "01",
		"hour": "06",
		"min": "53",
		"tzname": "UTC"
		},
		"tempm":"11.7", "tempi":"53.1","dewptm":"10.0", "dewpti":"50.0","hum":"89","wspdm":"7.4", "wspdi":"4.6","wgustm":"-9999.0", "wgusti":"-9999.0","wdird":"160","wdire":"SSE","vism":"12.9", "visi":"8.0","pressurem":"1009.1", "pressurei":"29.80","windchillm":"-999", "windchilli":"-999","heatindexm":"-9999", "heatindexi":"-9999","precipm":"-9999.00", "precipi":"-9999.00","conds":"Scattered Clouds","icon":"partlycloudy","fog":"0","rain":"0","snow":"0","hail":"0","thunder":"0","tornado":"0","metar":"METAR KMIC 010653Z AUTO 16004KT 8SM SCT110 12/10 A2980 RMK AO2 SLP091 T01170100" },
		{
		"date": {
		"pretty": "10:18 AM CDT on May 01, 2012",
		"year": "2012",
		"mon": "05",
		"mday": "01",
		"hour": "10",
		"min": "18",
		"tzname": "America/Chicago"
		},
		"utcdate": {
		"pretty": "3:18 PM GMT on May 01, 2012",
		"year": "2012",
		"mon": "05",
		"mday": "01",
		"hour": "15",
		"min": "18",
		"tzname": "UTC"
		},
		"tempm":"16.0", "tempi":"60.8","dewptm":"11.0", "dewpti":"51.8","hum":"72","wspdm":"22.2", "wspdi":"13.8","wgustm":"31.5", "wgusti":"19.6","wdird":"150","wdire":"SSE","vism":"16.1", "visi":"10.0","pressurem":"1006.3", "pressurei":"29.72","windchillm":"-999", "windchilli":"-999","heatindexm":"-9999", "heatindexi":"-9999","precipm":"-9999.00", "precipi":"-9999.00","conds":"Overcast","icon":"cloudy","fog":"0","rain":"0","snow":"0","hail":"0","thunder":"0","tornado":"0","metar":"SPECI KMIC 011518Z 15012G17KT 10SM FEW001 OVC017 16/11 A2972 RMK AO2" },
		{
		"date": {
		"pretty": "5:53 PM CDT on May 01, 2012",
		"year": "2012",
		"mon": "05",
		"mday": "01",
		"hour": "17",
		"min": "53",
		"tzname": "America/Chicago"
		},
		"utcdate": {
		"pretty": "10:53 PM GMT on May 01, 2012",
		"year": "2012",
		"mon": "05",
		"mday": "01",
		"hour": "22",
		"min": "53",
		"tzname": "UTC"
		},
		"tempm":"22.2", "tempi":"72.0","dewptm":"13.9", "dewpti":"57.0","hum":"59","wspdm":"24.1", "wspdi":"15.0","wgustm":"42.6", "wgusti":"26.5","wdird":"160","wdire":"SSE","vism":"16.1", "visi":"10.0","pressurem":"1000.7", "pressurei":"29.55","windchillm":"-999", "windchilli":"-999","heatindexm":"-9999", "heatindexi":"-9999","precipm":"-9999.00", "precipi":"-9999.00","conds":"Mostly Cloudy","icon":"mostlycloudy","fog":"0","rain":"0","snow":"0","hail":"0","thunder":"0","tornado":"0","metar":"METAR KMIC 012253Z 16013G23KT 10SM BKN039 BKN046 22/14 A2956 RMK AO2 PK WND 15028/2240 SLP007 T02220139" },
		{
		"date": {
		"pretty": "8:53 PM CDT on May 01, 2012",
		"year": "2012",
		"mon": "05",
		"mday": "01",
		"hour": "20",
		"min": "53",
		"tzname": "America/Chicago"
		},
		"utcdate": {
		"pretty": "1:53 AM GMT on May 02, 2012",
		"year": "2012",
		"mon": "05",
		"mday": "02",
		"hour": "01",
		"min": "53",
		"tzname": "UTC"
		},
		"tempm":"19.4", "tempi":"66.9","dewptm":"14.4", "dewpti":"57.9","hum":"73","wspdm":"9.3", "wspdi":"5.8","wgustm":"-9999.0", "wgusti":"-9999.0","wdird":"150","wdire":"SSE","vism":"16.1", "visi":"10.0","pressurem":"1003.8", "pressurei":"29.65","windchillm":"-999", "windchilli":"-999","heatindexm":"-9999", "heatindexi":"-9999","precipm":"-9999.00", "precipi":"-9999.00","conds":"Overcast","icon":"cloudy","fog":"0","rain":"0","snow":"0","hail":"0","thunder":"0","tornado":"0","metar":"METAR KMIC 020153Z 15005KT 10SM OVC026 19/14 A2965 RMK AO2 LTG DSNT ALQDS SLP038 TS DSNT SW MOV NE T01940144" },
		{
		"date": {
		"pretty": "8:57 PM CDT on May 01, 2012",
		"year": "2012",
		"mon": "05",
		"mday": "01",
		"hour": "20",
		"min": "57",
		"tzname": "America/Chicago"
		},
		"utcdate": {
		"pretty": "1:57 AM GMT on May 02, 2012",
		"year": "2012",
		"mon": "05",
		"mday": "02",
		"hour": "01",
		"min": "57",
		"tzname": "UTC"
		},
		"tempm":"19.0", "tempi":"66.2","dewptm":"14.0", "dewpti":"57.2","hum":"73","wspdm":"14.8", "wspdi":"9.2","wgustm":"-9999.0", "wgusti":"-9999.0","wdird":"140","wdire":"SE","vism":"14.5", "visi":"9.0","pressurem":"1003.9", "pressurei":"29.65","windchillm":"-999", "windchilli":"-999","heatindexm":"-9999", "heatindexi":"-9999","precipm":"0.0", "precipi":"0.00","conds":"Light Rain","icon":"rain","fog":"0","rain":"1","snow":"0","hail":"0","thunder":"1","tornado":"0","metar":"SPECI KMIC 020157Z 14008KT 9SM VCTS -RA OVC024 19/14 A2965 RMK AO2 TSB54RAB56 OCNL LTGCC VC TS VC SW MOV NE P0000" },
		{
		"date": {
		"pretty": "9:20 PM CDT on May 01, 2012",
		"year": "2012",
		"mon": "05",
		"mday": "01",
		"hour": "21",
		"min": "20",
		"tzname": "America/Chicago"
		},
		"utcdate": {
		"pretty": "2:20 AM GMT on May 02, 2012",
		"year": "2012",
		"mon": "05",
		"mday": "02",
		"hour": "02",
		"min": "20",
		"tzname": "UTC"
		},
		"tempm":"17.0", "tempi":"62.6","dewptm":"16.0", "dewpti":"60.8","hum":"94","wspdm":"11.1", "wspdi":"6.9","wgustm":"42.6", "wgusti":"26.5","wdird":"240","wdire":"WSW","vism":"3.2", "visi":"2.0","pressurem":"1005.0", "pressurei":"29.68","windchillm":"-999", "windchilli":"-999","heatindexm":"-9999", "heatindexi":"-9999","precipm":"4.1", "precipi":"0.16","conds":"Thunderstorms and Rain","icon":"tstorms","fog":"0","rain":"1","snow":"0","hail":"0","thunder":"1","tornado":"0","metar":"SPECI KMIC 020220Z 24006G23KT 2SM TSRA BR FEW015 BKN024 OVC060 17/16 A2968 RMK AO2 TSB0154RAB0156 OCNL LTGCC TS OHD MOV NE P0016" },
		{
		"date": {
		"pretty": "9:53 PM CDT on May 01, 2012",
		"year": "2012",
		"mon": "05",
		"mday": "01",
		"hour": "21",
		"min": "53",
		"tzname": "America/Chicago"
		},
		"utcdate": {
		"pretty": "2:53 AM GMT on May 02, 2012",
		"year": "2012",
		"mon": "05",
		"mday": "02",
		"hour": "02",
		"min": "53",
		"tzname": "UTC"
		},
		"tempm":"16.1", "tempi":"61.0","dewptm":"15.0", "dewpti":"59.0","hum":"93","wspdm":"9.3", "wspdi":"5.8","wgustm":"-9999.0", "wgusti":"-9999.0","wdird":"30","wdire":"NNE","vism":"8.0", "visi":"5.0","pressurem":"1004.3", "pressurei":"29.66","windchillm":"-999", "windchilli":"-999","heatindexm":"-9999", "heatindexi":"-9999","precipm":"7.1", "precipi":"0.28","conds":"Rain","icon":"rain","fog":"0","rain":"1","snow":"0","hail":"0","thunder":"0","tornado":"0","metar":"METAR KMIC 020253Z AUTO 03005KT 5SM RA BR FEW055 SCT065 OVC085 16/15 A2966 RMK AO2 LTG DSNT ALQDS TSB0154E49RAB0156 SLP043 P0028 60028 T01610150 52034" },
		{
		"date": {
		"pretty": "10:53 PM CDT on May 01, 2012",
		"year": "2012",
		"mon": "05",
		"mday": "01",
		"hour": "22",
		"min": "53",
		"tzname": "America/Chicago"
		},
		"utcdate": {
		"pretty": "3:53 AM GMT on May 02, 2012",
		"year": "2012",
		"mon": "05",
		"mday": "02",
		"hour": "03",
		"min": "53",
		"tzname": "UTC"
		},
		"tempm":"16.1", "tempi":"61.0","dewptm":"15.0", "dewpti":"59.0","hum":"93","wspdm":"11.1", "wspdi":"6.9","wgustm":"-9999.0", "wgusti":"-9999.0","wdird":"110","wdire":"ESE","vism":"12.9", "visi":"8.0","pressurem":"1003.1", "pressurei":"29.62","windchillm":"-999", "windchilli":"-999","heatindexm":"-9999", "heatindexi":"-9999","precipm":"3.8", "precipi":"0.15","conds":"Light Rain","icon":"rain","fog":"0","rain":"1","snow":"0","hail":"0","thunder":"0","tornado":"0","metar":"METAR KMIC 020353Z AUTO 11006KT 8SM -RA OVC100 16/15 A2963 RMK AO2 LTG DSNT S AND SW SLP031 P0015 T01610150" },
		{
		"date": {
		"pretty": "11:27 PM CDT on May 01, 2012",
		"year": "2012",
		"mon": "05",
		"mday": "01",
		"hour": "23",
		"min": "27",
		"tzname": "America/Chicago"
		},
		"utcdate": {
		"pretty": "4:27 AM GMT on May 02, 2012",
		"year": "2012",
		"mon": "05",
		"mday": "02",
		"hour": "04",
		"min": "27",
		"tzname": "UTC"
		},
		"tempm":"16.0", "tempi":"60.8","dewptm":"15.0", "dewpti":"59.0","hum":"94","wspdm":"0.0", "wspdi":"0.0","wgustm":"-9999.0", "wgusti":"-9999.0","wdird":"0","wdire":"North","vism":"4.0", "visi":"2.5","pressurem":"1004.6", "pressurei":"29.67","windchillm":"-999", "windchilli":"-999","heatindexm":"-9999", "heatindexi":"-9999","precipm":"3.8", "precipi":"0.15","conds":"Rain","icon":"rain","fog":"0","rain":"1","snow":"0","hail":"0","thunder":"1","tornado":"0","metar":"SPECI KMIC 020427Z AUTO 00000KT 2 1/2SM VCTS RA BR SCT045 BKN060 OVC090 16/15 A2967 RMK AO2 LTG DSNT ALQDS TSB0355E0357B0359 P0015" },
		{
		"date": {
		"pretty": "11:38 PM CDT on May 01, 2012",
		"year": "2012",
		"mon": "05",
		"mday": "01",
		"hour": "23",
		"min": "38",
		"tzname": "America/Chicago"
		},
		"utcdate": {
		"pretty": "4:38 AM GMT on May 02, 2012",
		"year": "2012",
		"mon": "05",
		"mday": "02",
		"hour": "04",
		"min": "38",
		"tzname": "UTC"
		},
		"tempm":"16.0", "tempi":"60.8","dewptm":"15.0", "dewpti":"59.0","hum":"94","wspdm":"5.6", "wspdi":"3.5","wgustm":"-9999.0", "wgusti":"-9999.0","wdird":"130","wdire":"SE","vism":"4.8", "visi":"3.0","pressurem":"1004.3", "pressurei":"29.66","windchillm":"-999", "windchilli":"-999","heatindexm":"-9999", "heatindexi":"-9999","precipm":"4.8", "precipi":"0.19","conds":"Rain","icon":"rain","fog":"0","rain":"1","snow":"0","hail":"0","thunder":"1","tornado":"0","metar":"SPECI KMIC 020438Z AUTO 13003KT 3SM VCTS RA BR SCT050 BKN060 OVC075 16/15 A2966 RMK AO2 LTG DSNT ALQDS TSB0355E0357B0359 P0019" },
		{
		"date": {
		"pretty": "11:49 PM CDT on May 01, 2012",
		"year": "2012",
		"mon": "05",
		"mday": "01",
		"hour": "23",
		"min": "49",
		"tzname": "America/Chicago"
		},
		"utcdate": {
		"pretty": "4:49 AM GMT on May 02, 2012",
		"year": "2012",
		"mon": "05",
		"mday": "02",
		"hour": "04",
		"min": "49",
		"tzname": "UTC"
		},
		"tempm":"16.0", "tempi":"60.8","dewptm":"15.0", "dewpti":"59.0","hum":"94","wspdm":"5.6", "wspdi":"3.5","wgustm":"-9999.0", "wgusti":"-9999.0","wdird":"130","wdire":"SE","vism":"4.8", "visi":"3.0","pressurem":"1004.3", "pressurei":"29.66","windchillm":"-999", "windchilli":"-999","heatindexm":"-9999", "heatindexi":"-9999","precipm":"6.1", "precipi":"0.24","conds":"Rain","icon":"rain","fog":"0","rain":"1","snow":"0","hail":"0","thunder":"0","tornado":"0","metar":"SPECI KMIC 020449Z AUTO 13003KT 3SM RA BR FEW050 BKN070 OVC085 16/15 A2966 RMK AO2 LTG DSNT SE AND S TSB0355E0357B0359E43 P0024" },
		{
		"date": {
		"pretty": "11:53 PM CDT on May 01, 2012",
		"year": "2012",
		"mon": "05",
		"mday": "01",
		"hour": "23",
		"min": "53",
		"tzname": "America/Chicago"
		},
		"utcdate": {
		"pretty": "4:53 AM GMT on May 02, 2012",
		"year": "2012",
		"mon": "05",
		"mday": "02",
		"hour": "04",
		"min": "53",
		"tzname": "UTC"
		},
		"tempm":"15.6", "tempi":"60.1","dewptm":"15.0", "dewpti":"59.0","hum":"96","wspdm":"5.6", "wspdi":"3.5","wgustm":"-9999.0", "wgusti":"-9999.0","wdird":"100","wdire":"East","vism":"4.8", "visi":"3.0","pressurem":"1004.1", "pressurei":"29.65","windchillm":"-999", "windchilli":"-999","heatindexm":"-9999", "heatindexi":"-9999","precipm":"6.6", "precipi":"0.26","conds":"Rain","icon":"rain","fog":"0","rain":"1","snow":"0","hail":"0","thunder":"0","tornado":"0","metar":"METAR KMIC 020453Z AUTO 10003KT 3SM RA BR OVC070 16/15 A2966 RMK AO2 LTG DSNT SE AND S TSB0355E0357B0359E43 SLP041 P0026 T01560150" }
		],
		"dailysummary": [
		{ "date": {
		"pretty": "12:00 PM CDT on May 01, 2012",
		"year": "2012",
		"mon": "05",
		"mday": "01",
		"hour": "12",
		"min": "00",
		"tzname": "America/Chicago"
		},
		"fog":"0","rain":"1","snow":"0","snowfallm":"0.00", "snowfalli":"0.00","monthtodatesnowfallm":"", "monthtodatesnowfalli":"","since1julsnowfallm":"", "since1julsnowfalli":"","snowdepthm":"", "snowdepthi":"","hail":"0","thunder":"1","tornado":"0","meantempm":"17", "meantempi":"62","meandewptm":"14", "meandewpti":"57","meanpressurem":"1005", "meanpressurei":"29.68","meanwindspdm":"11", "meanwindspdi":"7","meanwdire":"","meanwdird":"140","meanvism":"10", "meanvisi":"6","humidity":"","maxtempm":"24", "maxtempi":"75","mintempm":"12", "mintempi":"53","maxhumidity":"96","minhumidity":"59","maxdewptm":"16", "maxdewpti":"61","mindewptm":"10", "mindewpti":"50","maxpressurem":"1009", "maxpressurei":"29.81","minpressurem":"1001", "minpressurei":"29.55","maxwspdm":"24", "maxwspdi":"15","minwspdm":"0", "minwspdi":"0","maxvism":"16", "maxvisi":"10","minvism":"3", "minvisi":"2","gdegreedays":"12","heatingdegreedays":"2","coolingdegreedays":"0","precipm":"17.53", "precipi":"0.69","precipsource":"","heatingdegreedaysnormal":"","monthtodateheatingdegreedays":"","monthtodateheatingdegreedaysnormal":"","since1sepheatingdegreedays":"","since1sepheatingdegreedaysnormal":"","since1julheatingdegreedays":"","since1julheatingdegreedaysnormal":"","coolingdegreedaysnormal":"","monthtodatecoolingdegreedays":"","monthtodatecoolingdegreedaysnormal":"","since1sepcoolingdegreedays":"","since1sepcoolingdegreedaysnormal":"","since1jancoolingdegreedays":"","since1jancoolingdegreedaysnormal":"" }
		]
	}
}
